NAVSTAR 48 (USA 151)    
1 26407U 00040A   26139.44773176  .00000022  00000+0  00000+0 0  9995
2 26407  54.8559 216.3039 0121379 302.3545 110.6589  2.00557390189375
NAVSTAR 51 (USA 166)    
1 27663U 03005A   26139.20391022  .00000026  00000+0  00000+0 0  9998
2 27663  54.8869 216.1205 0147979  53.0170 319.5484  2.00562053170731
NAVSTAR 54 (USA 177)    
1 28190U 04009A   26137.46271089 -.00000030  00000+0  00000+0 0  9991
2 28190  54.8563 276.9279 0114751 171.7221 177.4709  2.00555598162323
NAVSTAR 56 (USA 180)    
1 28474U 04045A   26139.13074609 -.00000070  00000+0  00000+0 0  9995
2 28474  55.1533 326.0661 0169836 315.6449 222.9389  2.00554454157847
NAVSTAR 57 (USA 183)    
1 28874U 05038A   26139.40235043 -.00000028  00000+0  00000+0 0  9996
2 28874  54.9026 274.3386 0127705 295.9756  41.1421  2.00567559151251
NAVSTAR 58 (USA 190)    
1 29486U 06042A   26139.12470000  .00000061  00000+0  00000+0 0  9991
2 29486  54.7064 152.4926 0106183  53.8066 340.8374  2.00571442143814
NAVSTAR 59 (USA 192)    
1 29601U 06052A   26137.00699953  .00000046  00000+0  00000+0 0  9999
2 29601  54.9391 215.2422 0085868  90.5552 270.4999  2.00556386142787
NAVSTAR 60 (USA 196)    
1 32260U 07047A   26138.80755969 -.00000017  00000+0  00000+0 0  9997
2 32260  54.0746  81.2761 0165746  86.8297 275.0323  2.00556604136229
NAVSTAR 61 (USA 199)    
1 32384U 07062A   26138.87264733 -.00000027  00000+0  00000+0 0  9993
2 32384  55.0562 275.3305 0035161 163.7098  10.3137  2.00558174134926
NAVSTAR 62 (USA 201)    
1 32711U 08012A   26139.21994751  .00000060  00000+0  00000+0 0  9998
2 32711  54.4926 151.0819 0210542 247.4575 110.3278  2.00571601133178
NAVSTAR 64 (USA 206)    
1 35752U 09043A   26139.35860839 -.00000079  00000+0  00000+0 0  9996
2 35752  56.1928  28.5841 0053416  82.0534  29.9151  2.00555692122785
NAVSTAR 65 (USA 213)    
1 36585U 10022A   26137.60907735  .00000049  00000+0  00000+0 0  9999
2 36585  54.2733 209.7940 0126408  66.1106 340.3358  2.00560837116987
NAVSTAR 67 (USA 239)    
1 38833U 12053A   26137.40512145  .00000074  00000+0  00000+0 0  9996
2 38833  53.5797 144.8603 0178732  65.3642 296.5167  2.00566950 98829
NAVSTAR 68 (USA 242)    
1 39166U 13023A   26135.27691818 -.00000031  00000+0  00000+0 0  9996
2 39166  54.5310 270.3138 0141799  50.8427 310.3815  2.00563577 95220
NAVSTAR 69 (USA 248)    
1 39533U 14008A   26139.26680808  .00000058  00000+0  00000+0 0  9996
2 39533  53.6493 150.4992 0084123 230.7398 128.5374  2.00557877 89104
NAVSTAR 70 (USA 251)    
1 39741U 14026A   26139.54226747 -.00000073  00000+0  00000+0 0  9994
2 39741  56.5117 332.6324 0038515 326.8833  32.8887  2.00563006 87967
NAVSTAR 71 (USA 256)    
1 40105U 14045A   26139.13492899  .00000000  00000+0  00000+0 0  9998
2 40105  55.3351  89.6219 0032265 118.5912 241.6989  2.00556383 85491
NAVSTAR 72 (USA 258)    
1 40294U 14068A   26139.00719781 -.00000074  00000+0  00000+0 0  9992
2 40294  56.9682  32.0791 0066195  69.5433 291.2062  2.00574298 84625
NAVSTAR 73 (USA 260)    
1 40534U 15013A   26138.64489052  .00000041  00000+0  00000+0 0  9997
2 40534  53.1705 205.3995 0109037  40.0256 320.8571  2.00553076 81237
NAVSTAR 74 (USA 262)    
1 40730U 15033A   26138.80395372 -.00000023  00000+0  00000+0 0  9997
2 40730  54.0064 268.2976 0115012  30.0973 330.5439  2.00557665 79400
NAVSTAR 75 (USA 265)    
1 41019U 15062A   26138.86115367 -.00000073  00000+0  00000+0 0  9995
2 41019  56.9406  31.9410 0111391 231.3554 127.6822  2.00566892 77240
NAVSTAR 76 (USA 266)    
1 41328U 16007A   26138.95018929  .00000001  00000+0  00000+0 0  9994
2 41328  55.5069  90.6182 0096120 247.2933 111.6541  2.00553010 75258
NAVSTAR 77 (USA 289)    
1 43873U 18109A   26139.33769073  .00000007  00000+0  00000+0 0  9998
2 43873  55.6655  93.3242 0037945 198.6532 334.5782  2.00560104 54496
NAVSTAR 78 (USA 293)    
1 44506U 19056A   26135.98166581 -.00000060  00000+0  00000+0 0  9996
2 44506  55.6526 332.4228 0060472 197.4166 335.4017  2.00569160 49428
NAVSTAR 79 (USA 304)    
1 45854U 20041A   26136.13771204 -.00000070  00000+0  00000+0 0  9992
2 45854  56.6497  30.1875 0062714 204.8384  20.3506  2.00559115 43391
NAVSTAR 80 (USA 309)    
1 46826U 20078A   26139.29391199  .00000027  00000+0  00000+0 0  9994
2 46826  53.9835 211.9505 0072254 206.3688 113.0997  2.00564737 40926
NAVSTAR 81 (USA 319)    
1 48859U 21054A   26137.34480044 -.00000068  00000+0  00000+0 0  9995
2 48859  55.1876 333.6992 0024566 229.1389 308.8619  2.00570739 36131
NAVSTAR 82 (USA 343)    
1 55268U 23009A   26138.54209185  .00000067  00000+0  00000+0 0  9995
2 55268  55.1180 149.6840 0006010 315.2078  45.2270  2.00573426 24659
NAVSTAR 83 (USA 440)    
1 62339U 24242A   26139.16850412 -.00000077  00000+0  00000+0 0  9998
2 62339  54.8621 335.3572 0017202   3.5576 171.7354  2.00570758 10673
NAVSTAR 84 (USA 545)    
1 64202U 25116A   26139.41840637 -.00000078  00000+0  00000+0 0  9997
2 64202  55.2165  32.2881 0008489 335.9711 202.0396  2.00577638  7290
NAVSTAR 85 (USA 581)    
1 67588U 26017A   26139.28079318  .00000000  00000+0  00000+0 0  9997
2 67588  55.0708  89.9148 0022808 256.0207 103.6915  2.00571625431036
